ESTCUBE 1               
1 39161U 13021C   22308.41908301  .00001543  00000+0  24633-3 0  9991
2 39161  97.8988  21.9569 0009172 340.6385  19.4460 14.73244453510075
FENGYUN 3C              
1 39260U 13052A   22308.53914521  .00000369  00000+0  20819-3 0  9996
2 39260  98.4456 329.5025 0010310 226.7743 133.2567 14.15957115471749
CASSIOPE                
1 39265U 13055A   22308.51936919  .00015384  00000+0  40604-3 0  9994
2 39265  80.9612 118.5080 0608498 262.1755  90.9981 14.41941875472495
ZACUBE-1 (TSHEPISOSAT)  
1 39417U 13066B   22308.41299439  .00004435  00000+0  53840-3 0  9994
2 39417  97.6549 273.7602 0055706 306.8783  52.7332 14.82931243483869
CINEMA-3 (KHUSAT-2)     
1 39426U 13066L   22308.40921673  .00001613  00000+0  25291-3 0  9999
2 39426  97.8096 242.3373 0103459 146.7399 214.0367 14.70447186479836
TRITON-1                
1 39427U 13066M   22308.36503476  .00002524  00000+0  39622-3 0  9997
2 39427  97.8208 238.1454 0110975 176.5701 183.6292 14.69407566479322
DELFI-N3XT              
1 39428U 13066N   22308.38954429  .00004461  00000+0  68043-3 0  9999
2 39428  97.8205 236.8157 0115299 189.4778 170.4254 14.69921398479085
GOMX-1                  
1 39430U 13066Q   22308.50603348  .00003510  00000+0  62848-3 0  9998
2 39430  97.7969 207.6368 0147457 323.6455  35.4782 14.60572050476732
BRITE-PL1 (LEM)         
1 39431U 13066R   22308.43010391  .00000867  00000+0  19236-3 0  9996
2 39431  97.6847 149.6181 0201697 154.5303 206.6000 14.47482441472612
ICUBE-1                 
1 39432U 13066S   22308.45301649  .00004850  00000+0  47061-3 0  9991
2 39432  97.4739 305.0587 0031301 153.2722 207.0119 14.92715056485580
HUMSAT-D                
1 39433U 13066T   22308.45758390  .00006548  00000+0  59258-3 0  9998
2 39433  97.4517 312.8113 0030226 126.3379 234.0639 14.95370195486133
VELOX-PII               
1 39438U 13066Y   22308.53800078  .00004086  00000+0  53366-3 0  9992
2 39438  97.7109 265.2974 0068972   1.8832 358.2627 14.79350576481712
FIRST-MOVE              
1 39439U 13066Z   22308.32313382  .00010124  00000+0  11439-2 0  9991
2 39439  97.6540 276.4690 0059742 301.0332  58.5025 14.85386405482805
CUBEBUG-2 (LO-74)       
1 39440U 13066AA  22308.39931524  .00004543  00000+0  61164-3 0  9993
2 39440  97.7434 260.2212 0079213  38.4187 322.2628 14.77495452480942
NEE-02 KRYSAOR          
1 39441U 13066AB  22308.39119572  .00003076  00000+0  42938-3 0  9993
2 39441  97.7542 257.3092 0081592  52.7722 308.0897 14.76089308480671
FUNCUBE-1 (AO-73)       
1 39444U 13066AE  22308.39067558  .00005927  00000+0  69737-3 0  9995
2 39444  97.6422 276.1698 0054120 293.9449  65.6104 14.84143430482274
HINCUBE                 
1 39445U 13066AF  22308.39355670  .00005790  00000+0  68480-3 0  9993
2 39445  97.6437 275.9775 0054244 296.3546  63.2104 14.83935003482218
UWE-3                   
1 39446U 13066AG  22308.38126335  .00005050  00000+0  64681-3 0  9995
2 39446  97.7039 266.5604 0067900 354.5687   5.4782 14.80106342481156
AIST-1 (RS-41)          
1 39492U 13078C   22308.47495536  .00002278  00000+0  24059-3 0  9995
2 39492  82.4155 102.6257 0019719   6.5356 353.6105 14.88707133480613
SPROUT                  
1 39770U 14029E   22308.30878951  .00015521  00000+0  14972-2 0  9996
2 39770  97.9534  66.3780 0007993 347.5650  12.5377 14.92950582458516
UNISAT-6                
1 40012U 14033C   22308.39538330  .00002649  00000+0  38743-3 0  9995
2 40012  97.6618 128.9408 0058284  66.2099 294.5208 14.75308802450611
BUGSAT-1 (TITA)         
1 40014U 14033E   22308.57233485  .00004427  00000+0  38393-3 0  9997
2 40014  98.1451 312.7851 0028686 295.3675  64.4578 14.97328785457108
DUCHIFAT-1              
1 40021U 14033M   22308.38594754  .00008073  00000+0  76284-3 0  9995
2 40021  98.0282 261.3165 0010714 304.9180  55.1032 14.93936499455580
NANOSATC-BR1            
1 40024U 14033Q   22308.50535413  .00006729  00000+0  65858-3 0  9990
2 40024  97.9991 254.0386 0010403 311.9999  48.0333 14.92606636454864
QB50P1                  
1 40025U 14033R   22308.53799550  .00005324  00000+0  54065-3 0  9996
2 40025  97.9711 247.1445 0010913 323.5195  36.5278 14.91226064454634
DTUSAT-2                
1 40030U 14033W   22308.51035289  .00005702  00000+0  58742-3 0  9998
2 40030  97.9456 241.9300 0010317 320.5492  39.4973 14.90620394454506
QB50P2                  
1 40032U 14033Y   22308.55216758  .00005335  00000+0  55032-3 0  9997
2 40032  97.9453 241.9875 0010334 321.0466  39.0006 14.90598098454483
POLYITAN-1              
1 40042U 14033AJ  22308.47756816  .00006575  00000+0  66292-3 0  9990
2 40042  97.9820 248.4797 0012827 314.2332  45.7832 14.91407749454510
TIGRISAT                
1 40043U 14033AK  22308.50378167  .00001942  00000+0  28536-3 0  9996
2 40043  97.6556 130.2530 0060146  63.2124 297.5221 14.75331226450270
AISAT                   
1 40054U 14034B   22308.52397501  .00006225  00000+0  82029-3 0  9990
2 40054  98.3655 125.6950 0011470 223.8422 136.1879 14.80451112450196
CANX-4                  
1 40055U 14034C   22308.44010582  .00001622  00000+0  24517-3 0  9997
2 40055  98.3719 110.1263 0012899 273.1345  86.8387 14.75671355449361
CANX-5                  
1 40056U 14034D   22308.44701062  .00001638  00000+0  24752-3 0  9996
2 40056  98.3720 110.1129 0012895 273.1170  86.8563 14.75668532440176
VELOX-I                 
1 40057U 14034E   22308.52086246  .00004754  00000+0  63921-3 0  9999
2 40057  98.3708 126.7848 0009816 238.3886 121.6427 14.79737486450188
METEOR-M 2              
1 40069U 14037A   22308.47303237 -.00000190  00000+0 -68842-4 0  9991
2 40069  98.4299 319.8736 0004611 276.0533  84.0125 14.20723959431748
DX1                     
1 40071U 14037C   22308.43797182  .00001906  00000+0  24689-3 0  9990
2 40071  98.3855 183.9897 0007487 220.6567 139.4079 14.82104258450075
UKUBE-1                 
1 40074U 14037F   22308.51131368  .00005471  00000+0  63279-3 0  9999
2 40074  98.3649 196.3983 0003854 172.4942 187.6356 14.85986963450862
FIREBIRD 3              
1 40377U 15003B   22308.54171041  .00039914  00000+0  10236-2 0  9997
2 40377  99.0786 205.0564 0086898 269.1029  90.0252 15.35390118429865
FIREBIRD 4              
1 40378U 15003C   22308.29718003  .00042863  00000+0  10963-2 0  9999
2 40378  99.0795 205.0020 0086779 269.4567  89.6727 15.35463479429830
GRIFEX                  
1 40379U 15003D   22308.52075955  .00025418  00000+0  82518-3 0  9991
2 40379  99.0895 189.4736 0107373 317.1733  42.1172 15.26453335428962
CP10 (EXOCUBE)          
1 40380U 15003E   22308.57135010  .00018307  00000+0  66222-3 0  9990
2 40380  99.1005 181.5975 0117856 343.7069  16.0385 15.22107950428455
DEORBITSAIL             
1 40719U 15032E   22308.58848676  .00005349  00000+0  72823-3 0  9994
2 40719  97.7604 182.1570 0014192 271.2805  88.6781 14.79067695394594
NUDT-PHONESAT           
1 40900U 15049B   22308.53975286  .00068911  00000+0  14563-2 0  9997
2 40900  97.3918 327.9306 0010332 134.0225  23.0355 15.44872333396161
XW-2A                   
1 40903U 15049E   22308.49563186  .00054176  00000+0  64557-3 0  9994
2 40903  97.1601   7.6805 0006494 323.1065 160.7913 15.60902983401040
XW-2C                   
1 40906U 15049H   22308.52647102  .00010035  00000+0  45917-3 0  9997
2 40906  97.4977 310.9837 0011817 223.4656 297.1801 15.20660283394198
XW-2D                   
1 40907U 15049J   22308.47949204  .00011784  00000+0  52479-3 0  9993
2 40907  97.4964 311.0549 0011197 217.4520 295.7620 15.21550813394248
LILACSAT-2              
1 40908U 15049K   22308.48353757  .00005907  00000+0  30443-3 0  9994
2 40908  97.5232 307.7986 0013211 247.7568 263.7384 15.16686395393703
XW-2E                   
1 40909U 15049L   22308.52297015  .00019037  00000+0  73232-3 0  9996
2 40909  97.4644 315.9892 0010879 189.6712 272.5565 15.26385870394759
XW-2F                   
1 40910U 15049M   22308.51031700  .00019249  00000+0  75237-3 0  9996
2 40910  97.4743 315.1476 0011853 192.4478 326.4984 15.25841457394510
XW-2B                   
1 40911U 15049N   22308.51548287  .00011943  00000+0  53388-3 0  9996
2 40911  97.4945 311.6417 0011221 219.3477 292.8188 15.21418658394137
KAITUO 1B               
1 40912U 15049P   22308.54103718  .00021425  00000+0  75201-3 0  9990
2 40912  97.4348 319.5299 0012798 156.9144 358.3766 15.29358425395131
TIANWANG 1A (TW-1A)     
1 40928U 15051D   22308.52817399  .00194966  00000+0  10893-2 0  9991
2 40928  97.0222 331.2009 0005858 178.9668 346.5252 15.78817704400162
LAPAN-A2                
1 40931U 15052B   22308.44451639  .00001428  00000+0  10902-3 0  9990
2 40931   5.9962 250.3488 0013585 348.3047  11.6900 14.76907693384072
LQSAT                   
1 40958U 15057A   22308.43551404  .00001070  00000+0  17173-3 0  9994
2 40958  97.7339 348.2714 0016994 226.0650 133.9158 14.73488348380590
ATHENOXAT 1             
1 41168U 15077C   22308.59475718  .00038443  00000+0  14347-2 0  9993
2 41168  14.9844 129.0086 0009765  49.4302 358.3228 15.25388556381705
GALASSIA                
1 41170U 15077E   22307.68975988  .00022908  00000+0  89445-3 0  9990
2 41170  14.9866 128.1737 0010484  67.7128 292.4305 15.23501117381469
VELOX-II                
1 41171U 15077F   22308.39718878  .00018568  00000+0  84591-3 0  9997
2 41171  14.9904 204.0043 0007464 265.2753  94.6716 15.18110005380890
CHUBUSAT-2              
1 41338U 16012B   22308.12609232  .00004389  00000+0  32060-3 0  9996
2 41338  31.0023 214.2481 0012759  99.4086 260.7992 15.01954878368495
CHUBUSAT-3              
1 41339U 16012C   22308.11337407  .00003864  00000+0  28131-3 0  9999
2 41339  31.0103 211.2364 0012476 106.8356 253.3656 15.01985165368499
HORYU-4                 
1 41340U 16012D   22308.36779408  .00007342  00000+0  50765-3 0  9992
2 41340  31.0036 185.0373 0012441 155.3051 204.8183 15.04302716368806
